[{"OBJECT_NAME":"TIGRISAT","OBJECT_ID":"2014-033AK","EPOCH":"2026-03-09T22:14:47.066496","MEAN_MOTION":14.84730018,"ECCENTRICITY":0.00503318,"INCLINATION":97.7676,"RA_OF_ASC_NODE":221.3196,"ARG_OF_PERICENTER":41.5802,"MEAN_ANOMALY":318.9224,"EPHEMERIS_TYPE":0,"CLASSIFICATION_TYPE":"U","NORAD_CAT_ID":40043,"ELEMENT_SET_NO":999,"REV_AT_EPOCH":63089,"BSTAR":0.00033712595,"MEAN_MOTION_DOT":2.867e-5,"MEAN_MOTION_DDOT":0},{"OBJECT_NAME":"CZ-4C DEB","OBJECT_ID":"2018-031J","EPOCH":"2026-03-08T23:16:23.138400","MEAN_MOTION":14.80472658,"ECCENTRICITY":0.00037528,"INCLINATION":97.7313,"RA_OF_ASC_NODE":126.5608,"ARG_OF_PERICENTER":246.8859,"MEAN_ANOMALY":113.1959,"EPHEMERIS_TYPE":0,"CLASSIFICATION_TYPE":"U","NORAD_CAT_ID":43270,"ELEMENT_SET_NO":999,"REV_AT_EPOCH":43811,"BSTAR":0.00014078752,"MEAN_MOTION_DOT":1.027e-5,"MEAN_MOTION_DDOT":0}]
